{
  "type": "FeatureCollection",
  "features": [
    {
      "type": "Feature",
      "properties": {
        "norad_id": 2807,
        "name": "OPS 7218 (TRANSIT 16)",
        "group": "nnss",
        "lat": -70.06501066189853,
        "lon": -7.334020869918358,
        "alt_km": 1090.9494281889693,
        "timestamp": "2025-12-26T06:43:29.780034+00:00",
        "meta_object_name": "OPS 7218 (TRANSIT 16)",
        "meta_object_id": "1967-048A",
        "meta_epoch": "2025-12-25T22:28:22.698912",
        "meta_mean_motion": 13.50724911,
        "meta_eccentricity": 0.00221375,
        "meta_inclination": 89.6734,
        "meta_ra_of_asc_node": 353.5784,
        "meta_arg_of_pericenter": 78.9761,
        "meta_mean_anomaly": 340.2081,
        "meta_ephemeris_type": 0,
        "meta_classification_type": "U",
        "meta_norad_cat_id": 2807,
        "meta_element_set_no": 999,
        "meta_rev_at_epoch": 88454,
        "meta_bstar": 0.00013858417,
        "meta_mean_motion_dot": 1e-06,
        "meta_mean_motion_ddot": 0,
        "tle_line1": "1 02807U 67048A   25359.93637383  .00000100  00000+0  13858-3 0  9996",
        "tle_line2": "2 02807  89.6734 353.5784 0022137  78.9761 340.2081 13.50724911884544"
      },
      "geometry": {
        "type": "Point",
        "coordinates": [
          -7.334020869918358,
          -70.06501066189853
        ]
      }
    },
    {
      "type": "Feature",
      "properties": {
        "norad_id": 2965,
        "name": "OPS 4947 (TRANSIT 17)",
        "group": "nnss",
        "lat": 52.832211391379005,
        "lon": -157.5896254879415,
        "alt_km": 1041.0108601408483,
        "timestamp": "2025-12-26T06:43:29.780056+00:00",
        "meta_object_name": "OPS 4947 (TRANSIT 17)",
        "meta_object_id": "1967-092A",
        "meta_epoch": "2025-12-25T14:41:33.017280",
        "meta_mean_motion": 13.53456966,
        "meta_eccentricity": 0.0047171,
        "meta_inclination": 89.2485,
        "meta_ra_of_asc_node": 23.4532,
        "meta_arg_of_pericenter": 196.3512,
        "meta_mean_anomaly": 278.3032,
        "meta_ephemeris_type": 0,
        "meta_classification_type": "U",
        "meta_norad_cat_id": 2965,
        "meta_element_set_no": 999,
        "meta_rev_at_epoch": 87271,
        "meta_bstar": 0.00018696,
        "meta_mean_motion_dot": 1.38e-06,
        "meta_mean_motion_ddot": 0,
        "tle_line1": "1 02965U 67092A   25359.61218770  .00000138  00000+0  18696-3 0  9996",
        "tle_line2": "2 02965  89.2485  23.4532 0047171 196.3512 278.3032 13.53456966872714"
      },
      "geometry": {
        "type": "Point",
        "coordinates": [
          -157.5896254879415,
          52.832211391379005
        ]
      }
    },
    {
      "type": "Feature",
      "properties": {
        "norad_id": 3133,
        "name": "OPS 7034 (TRANSIT 18)",
        "group": "nnss",
        "lat": -5.659591685229963,
        "lon": 93.67472564773881,
        "alt_km": 1038.0647190323116,
        "timestamp": "2025-12-26T06:43:29.780070+00:00",
        "meta_object_name": "OPS 7034 (TRANSIT 18)",
        "meta_object_id": "1968-012A",
        "meta_epoch": "2025-12-25T19:27:50.343840",
        "meta_mean_motion": 13.51568761,
        "meta_eccentricity": 0.00750295,
        "meta_inclination": 90.0285,
        "meta_ra_of_asc_node": 273.6762,
        "meta_arg_of_pericenter": 131.6104,
        "meta_mean_anomaly": 291.5955,
        "meta_ephemeris_type": 0,
        "meta_classification_type": "U",
        "meta_norad_cat_id": 3133,
        "meta_element_set_no": 999,
        "meta_rev_at_epoch": 57095,
        "meta_bstar": 0.00020971101,
        "meta_mean_motion_dot": 1.49e-06,
        "meta_mean_motion_ddot": 0,
        "tle_line1": "1 03133U 68012A   25359.81099935  .00000149  00000+0  20971-3 0  9990",
        "tle_line2": "2 03133  90.0285 273.6762 0075029 131.6104 291.5955 13.51568761570953"
      },
      "geometry": {
        "type": "Point",
        "coordinates": [
          93.67472564773881,
          -5.659591685229963
        ]
      }
    },
    {
      "type": "Feature",
      "properties": {
        "norad_id": 4507,
        "name": "NNSS 19 (TRANSIT 19)",
        "group": "nnss",
        "lat": 37.658672849999654,
        "lon": 54.54658983337376,
        "alt_km": 1109.2784112770032,
        "timestamp": "2025-12-26T06:43:29.780082+00:00",
        "meta_object_name": "NNSS 19 (TRANSIT 19)",
        "meta_object_id": "1970-067A",
        "meta_epoch": "2025-12-25T17:33:54.764640",
        "meta_mean_motion": 13.51317732,
        "meta_eccentricity": 0.01702182,
        "meta_inclination": 90.0047,
        "meta_ra_of_asc_node": 234.5427,
        "meta_arg_of_pericenter": 255.346,
        "meta_mean_anomaly": 102.8768,
        "meta_ephemeris_type": 0,
        "meta_classification_type": "U",
        "meta_norad_cat_id": 4507,
        "meta_element_set_no": 999,
        "meta_rev_at_epoch": 72397,
        "meta_bstar": 0.00012963941,
        "meta_mean_motion_dot": 1e-06,
        "meta_mean_motion_ddot": 0,
        "tle_line1": "1 04507U 70067A   25359.73188385  .00000100  00000+0  12964-3 0  9998",
        "tle_line2": "2 04507  90.0047 234.5427 0170218 255.3460 102.8768 13.51317732723972"
      },
      "geometry": {
        "type": "Point",
        "coordinates": [
          54.54658983337376,
          37.658672849999654
        ]
      }
    },
    {
      "type": "Feature",
      "properties": {
        "norad_id": 6909,
        "name": "NNSS 20 (TRANSIT 20)",
        "group": "nnss",
        "lat": 62.002432474488415,
        "lon": 74.58014233388849,
        "alt_km": 966.3111319134787,
        "timestamp": "2025-12-26T06:43:29.780093+00:00",
        "meta_object_name": "NNSS 20 (TRANSIT 20)",
        "meta_object_id": "1973-081A",
        "meta_epoch": "2025-12-25T17:54:30.672576",
        "meta_mean_motion": 13.71441138,
        "meta_eccentricity": 0.01560911,
        "meta_inclination": 89.8559,
        "meta_ra_of_asc_node": 254.8594,
        "meta_arg_of_pericenter": 39.7617,
        "meta_mean_anomaly": 321.4863,
        "meta_ephemeris_type": 0,
        "meta_classification_type": "U",
        "meta_norad_cat_id": 6909,
        "meta_element_set_no": 999,
        "meta_rev_at_epoch": 80539,
        "meta_bstar": 0.0002786728,
        "meta_mean_motion_dot": 2.84e-06,
        "meta_mean_motion_ddot": 0,
        "tle_line1": "1 06909U 73081A   25359.74618834  .00000284  00000+0  27867-3 0  9994",
        "tle_line2": "2 06909  89.8559 254.8594 0156091  39.7617 321.4863 13.71441138805397"
      },
      "geometry": {
        "type": "Point",
        "coordinates": [
          74.58014233388849,
          62.002432474488415
        ]
      }
    },
    {
      "type": "Feature",
      "properties": {
        "norad_id": 10457,
        "name": "TRANSAT",
        "group": "nnss",
        "lat": 33.27610502561641,
        "lon": 78.3487572575348,
        "alt_km": 1083.2877312901746,
        "timestamp": "2025-12-26T06:43:29.780105+00:00",
        "meta_object_name": "TRANSAT",
        "meta_object_id": "1977-106A",
        "meta_epoch": "2025-12-25T18:39:52.189632",
        "meta_mean_motion": 13.48945596,
        "meta_eccentricity": 0.0026569,
        "meta_inclination": 89.6475,
        "meta_ra_of_asc_node": 78.1351,
        "meta_arg_of_pericenter": 152.5856,
        "meta_mean_anomaly": 322.1693,
        "meta_ephemeris_type": 0,
        "meta_classification_type": "U",
        "meta_norad_cat_id": 10457,
        "meta_element_set_no": 999,
        "meta_rev_at_epoch": 36919,
        "meta_bstar": 0.0001191127,
        "meta_mean_motion_dot": 8.5e-07,
        "meta_mean_motion_ddot": 0,
        "tle_line1": "1 10457U 77106A   25359.77768738  .00000085  00000+0  11911-3 0  9993",
        "tle_line2": "2 10457  89.6475  78.1351 0026569 152.5856 322.1693 13.48945596369191"
      },
      "geometry": {
        "type": "Point",
        "coordinates": [
          78.3487572575348,
          33.27610502561641
        ]
      }
    },
    {
      "type": "Feature",
      "properties": {
        "norad_id": 12458,
        "name": "NOVA 1",
        "group": "nnss",
        "lat": 53.99458488228895,
        "lon": -89.00935979359528,
        "alt_km": 1160.4221519177718,
        "timestamp": "2025-12-26T06:43:29.780116+00:00",
        "meta_object_name": "NOVA 1",
        "meta_object_id": "1981-044A",
        "meta_epoch": "2025-12-25T19:47:26.127744",
        "meta_mean_motion": 13.23279888,
        "meta_eccentricity": 0.00157075,
        "meta_inclination": 89.8525,
        "meta_ra_of_asc_node": 91.2002,
        "meta_arg_of_pericenter": 71.8269,
        "meta_mean_anomaly": 44.8452,
        "meta_ephemeris_type": 0,
        "meta_classification_type": "U",
        "meta_norad_cat_id": 12458,
        "meta_element_set_no": 999,
        "meta_rev_at_epoch": 15359,
        "meta_bstar": 0.00013430863,
        "meta_mean_motion_dot": 6.6e-07,
        "meta_mean_motion_ddot": 0,
        "tle_line1": "1 12458U 81044A   25359.82460796  .00000066  00000+0  13431-3 0  9999",
        "tle_line2": "2 12458  89.8525  91.2002 0015707  71.8269  44.8452 13.23279888153597"
      },
      "geometry": {
        "type": "Point",
        "coordinates": [
          -89.00935979359528,
          53.99458488228895
        ]
      }
    }
  ]
}